NORAD_CAT_ID,OBJECT_NAME,OBJECT_TYPE,EPOCH,MEAN_MOTION,ECCENTRICITY,INCLINATION,RA_OF_ASC_NODE,ARG_OF_PERICENTER,MEAN_ANOMALY,BSTAR,MEAN_MOTION_DOT,MEAN_MOTION_DDOT,TLE_LINE0,TLE_LINE1,TLE_LINE2,SEMIMAJOR_AXIS,PERIOD,APOGEE,PERIGEE,DECAYED
49139.0,STARLINK-3057,PAYLOAD,2022-06-25 01:52:01,14.96713442,0.0002774,69.9989,66.7235,274.8758,85.2084,-8.7925e-08,-9.3e-07,0.0,0 STARLINK-3057,1 49139U 21082K   22176.07780076 -.00000093  00000-0 -87925-7 0  9994,2 49139  69.9989  66.7235 0002774 274.8758  85.2084 14.96713442 44228,6955.196,96.211,578.991,575.132,0.0
49139.0,STARLINK-3057,PAYLOAD,2022-06-25 09:53:13,14.9672137,0.0002664,69.9992,65.8833,274.3177,85.7677,-8.2783e-05,-1.039e-05,0.0,0 STARLINK-3057,1 49139U 21082K   22176.41195759 -.00001039  00000-0 -82783-4 0  9995,2 49139  69.9992  65.8833 0002664 274.3177  85.7677 14.96721370 44271,6955.172,96.21,578.89,575.184,0.0
49139.0,STARLINK-3057,PAYLOAD,2022-06-25 22:43:07,14.96716142,0.0002865,69.9988,64.5383,274.1919,85.8912,0.00014008,1.512e-05,0.0,0 STARLINK-3057,1 49139U 21082K   22176.94661045  .00001512  00000-0  14008-3 0  9997,2 49139  69.9988  64.5383 0002865 274.1919  85.8912 14.96716142 44350,6955.188,96.211,579.0459999999998,575.06,0.0
49139.0,STARLINK-3057,PAYLOAD,2022-06-26 01:55:35,14.96717921,0.0002833999999999,69.9988,64.2021,274.5135,85.5699,0.00015569,1.691e-05,0.0,0 STARLINK-3057,1 49139U 21082K   22177.08027298  .00001691  00000-0  15569-3 0  9990,2 49139  69.9988  64.2021 0002834 274.5135  85.5699 14.96717921 44373,6955.183000000001,96.211,579.019,575.076,0.0
49139.0,STARLINK-3057,PAYLOAD,2022-06-26 22:46:41,14.96716031,0.0002858,69.9988,62.0169,274.5383,85.5448,5.7472e-05,5.66e-06,0.0,0 STARLINK-3057,1 49139U 21082K   22177.94909114  .00000566  00000-0  57472-4 0  9991,2 49139  69.9988  62.0169 0002858 274.5383  85.5448 14.96716031 44501,6955.188,96.211,579.0409999999998,575.066,0.0
49139.0,STARLINK-3057,PAYLOAD,2022-06-27 01:59:10,14.9671397,0.0002895,69.999,61.6807,274.3673,85.7154,3.0051e-05,2.52e-06,0.0,0 STARLINK-3057,1 49139U 21082K   22178.08275699  .00000252  00000-0  30051-4 0  9997,2 49139  69.9990  61.6807 0002895 274.3673  85.7154 14.96713970 44526,6955.195,96.211,579.073,575.0459999999998,0.0
49139.0,STARLINK-3057,PAYLOAD,2022-06-27 10:00:21,14.96716671,0.0002888,69.9991,60.8403,274.2254,85.8574,3.009e-05,2.53e-06,0.0,0 STARLINK-3057,1 49139U 21082K   22178.41691498  .00000253  00000-0  30090-4 0  9997,2 49139  69.9991  60.8403 0002888 274.2254  85.8574 14.96716671 44579,6955.186,96.211,579.06,575.043,0.0
49139.0,STARLINK-3057,PAYLOAD,2022-06-27 21:14:01,14.96713947,0.0002865,69.9991,59.6639,274.105,85.9781,-5.002e-05,-6.64e-06,0.0,0 STARLINK-3057,1 49139U 21082K   22178.88474220 -.00000664  00000-0 -50020-4 0  9993,2 49139  69.9991  59.6639 0002865 274.1050  85.9781 14.96713947 44646,6955.195,96.211,579.053,575.067,0.0
49139.0,STARLINK-3057,PAYLOAD,2022-06-28 02:02:45,14.96705699,0.0002933,69.9992,59.1595,274.0439,86.0384,-0.00014771,-1.781e-05,0.0,0 STARLINK-3057,1 49139U 21082K   22179.08524677 -.00001781  00000-0 -14771-3 0  9991,2 49139  69.9992  59.1595 0002933 274.0439  86.0384 14.96705699 44678,6955.22,96.211,579.125,575.045,0.0
49139.0,STARLINK-3057,PAYLOAD,2022-06-28 21:17:35,14.96719631,0.0002878999999999,69.999,57.1425,272.4815,87.6014,0.00012622,1.354e-05,0.0,0 STARLINK-3057,1 49139U 21082K   22179.88721259  .00001354  00000-0  12622-3 0  9991,2 49139  69.9990  57.1425 0002879 272.4815  87.6014 14.96719631 44796,6955.177,96.21,579.045,575.04,0.0
49139.0,STARLINK-3057,PAYLOAD,2022-06-29 02:06:18,14.9671225,0.0003063,69.9989,56.6384,277.8384,82.2427,3.9639e-05,3.62e-06,0.0,0 STARLINK-3057,1 49139U 21082K   22180.08771591  .00000362  00000-0  39639-4 0  9995,2 49139  69.9989  56.6384 0003063 277.8384  82.2427 14.96712250 44821,6955.2,96.211,579.196,574.935,0.0
49139.0,STARLINK-3057,PAYLOAD,2022-06-29 08:31:16,14.96707185,0.0002839,69.999,55.9658,272.8077,87.2756,-3.774800000000001e-05,-5.24e-06,0.0,0 STARLINK-3057,1 49139U 21082K   22180.35504986 -.00000524  00000-0 -37748-4 0  9998,2 49139  69.9990  55.9658 0002839 272.8077  87.2756 14.96707185 44868,6955.215999999999,96.211,579.055,575.106,0.0
49139.0,STARLINK-3057,PAYLOAD,2022-06-29 19:44:56,14.96704256,0.0003088,69.9984,54.7889,272.1204,87.96,2.3898e-05,1.82e-06,0.0,0 STARLINK-3057,1 49139U 21082K   22180.82287529  .00000182  00000-0  23898-4 0  9990,2 49139  69.9984  54.7889 0003088 272.1204  87.9600 14.96704256 44935,6955.225,96.211,579.238,574.942,0.0
49139.0,STARLINK-3057,PAYLOAD,2022-06-29 21:21:10,14.96704548,0.0003114,69.9986,54.6208,272.1809,87.8993,4.4637e-05,4.19e-06,0.0,0 STARLINK-3057,1 49139U 21082K   22180.88970692  .00000419  00000-0  44637-4 0  9993,2 49139  69.9986  54.6208 0003114 272.1809  87.8993 14.96704548 44941,6955.224,96.211,579.255,574.923,0.0
49139.0,STARLINK-3057,PAYLOAD,2022-06-30 14:59:47,14.96721081,0.0002885,69.9985,52.7721,273.3434,86.7394,2.6131e-05,2.08e-06,0.0,0 STARLINK-3057,1 49139U 21082K   22181.62484975  .00000208  00000-0  26131-4 0  9995,2 49139  69.9985  52.7721 0002885 273.3434  86.7394 14.96721081 45057,6955.1730000000025,96.21,579.044,575.031,0.0
49139.0,STARLINK-3057,PAYLOAD,2022-06-30 21:24:43,14.96722849,0.000287,69.9986,52.0995,274.3569,85.7262,4.6456e-05,4.4e-06,0.0,0 STARLINK-3057,1 49139U 21082K   22181.89217511  .00000440  00000-0  46456-4 0  9994,2 49139  69.9986  52.0995 0002870 274.3569  85.7262 14.96722849 45098,6955.167,96.21,579.028,575.036,0.0
49139.0,STARLINK-3057,PAYLOAD,2022-07-01 08:38:25,14.96703778,0.000276,69.9985,50.9228,273.5153,86.5689,-7.6792e-06,-1.79e-06,0.0,0 STARLINK-3057,1 49139U 21082K   22182.36001273 -.00000179  00000-0 -76792-5 0  9991,2 49139  69.9985  50.9228 0002760 273.5153  86.5689 14.96703778 45161,6955.226,96.211,579.011,575.172,0.0
49139.0,STARLINK-3057,PAYLOAD,2022-07-01 21:28:19,14.9670493,0.0002805,69.9988,49.5781,273.3977,86.6861,-3.4509e-05,-4.86e-06,0.0,0 STARLINK-3057,1 49139U 21082K   22182.89467117 -.00000486  00000-0 -34509-4 0  9992,2 49139  69.9988  49.5781 0002805 273.3977  86.6861 14.96704930 45247,6955.223000000001,96.211,579.039,575.137,0.0
49139.0,STARLINK-3057,PAYLOAD,2022-07-02 08:42:00,14.96704286,0.0002916,69.9988,48.4016,273.72,86.3625,-0.00011435,-1.4e-05,0.0,0 STARLINK-3057,1 49139U 21082K   22183.36250069 -.00001400  00000-0 -11435-3 0  9990,2 49139  69.9988  48.4016 0002916 273.7200  86.3625 14.96704286 45319,6955.225,96.211,579.118,575.062,0.0
49139.0,STARLINK-3057,PAYLOAD,2022-07-02 16:43:11,14.96706354,0.000288,69.9987,47.5614,273.2296,86.8533,-0.00014522,-1.753e-05,0.0,0 STARLINK-3057,1 49139U 21082K   22183.69666214 -.00001753  00000-0 -14522-3 0  9990,2 49139  69.9987  47.5614 0002880 273.2296  86.8533 14.96706354 45368,6955.218000000003,96.211,579.087,575.08,0.0
49139.0,STARLINK-3057,PAYLOAD,2022-07-03 08:45:34,14.9671251,0.0002966,69.9987,45.8803,273.6038,86.4781,-0.00015563,-1.872e-05,0.0,0 STARLINK-3057,1 49139U 21082K   22184.36498140 -.00001872  00000-0 -15563-3 0  9994,2 49139  69.9987  45.8803 0002966 273.6038  86.4781 14.96712510 45465,6955.199000000001,96.211,579.127,575.001,0.0
49139.0,STARLINK-3057,PAYLOAD,2022-07-03 21:35:29,14.96703736,0.0002885,69.9987,44.5354,272.2212,87.8616,7.9428e-05,8.17e-06,0.0,0 STARLINK-3057,1 49139U 21082K   22184.89964172  .00000817  00000-0  79428-4 0  9992,2 49139  69.9987  44.5354 0002885 272.2212  87.8616 14.96703736 45542,6955.227,96.211,579.0980000000002,575.085,0.0
49139.0,STARLINK-3057,PAYLOAD,2022-07-04 00:47:57,14.96704739,0.0002868,69.9987,44.199,272.1047,87.9783,8.868700000000001e-05,9.23e-06,0.0,0 STARLINK-3057,1 49139U 21082K   22185.03330586  .00000923  00000-0  88687-4 0  9990,2 49139  69.9987  44.1990 0002868 272.1047  87.9783 14.96704739 45562,6955.223000000001,96.211,579.0830000000002,575.094,0.0
49139.0,STARLINK-3057,PAYLOAD,2022-07-04 21:39:03,14.96710783,0.0002858,69.9986,42.0137,273.189,86.8941,0.00011356,1.208e-05,0.0,0 STARLINK-3057,1 49139U 21082K   22185.90212261  .00001208  00000-0  11356-3 0  9990,2 49139  69.9986  42.0137 0002858 273.1890  86.8941 14.96710783 45691,6955.205,96.211,579.057,575.082,0.0
49139.0,STARLINK-3057,PAYLOAD,2022-07-05 00:51:31,14.96711843,0.0002866,69.9986,41.6773,273.8341,86.2489,0.00012147,1.299e-05,0.0,0 STARLINK-3057,1 49139U 21082K   22186.03578618  .00001299  00000-0  12147-3 0  9995,2 49139  69.9986  41.6773 0002866 273.8341  86.2489 14.96711843 45711,6955.201,96.211,579.06,575.073,0.0
49139.0,STARLINK-3057,PAYLOAD,2022-07-05 07:16:28,14.96714607,0.0002874,69.9986,41.0049,273.753,86.3299,0.00011746,1.253e-05,0.0,0 STARLINK-3057,1 49139U 21082K   22186.30311308  .00001253  00000-0  11746-3 0  9990,2 49139  69.9986  41.0049 0002874 273.7530  86.3299 14.96714607 45754,6955.193,96.211,579.057,575.059,0.0
49139.0,STARLINK-3057,PAYLOAD,2022-07-05 20:06:23,14.96716525,0.00029,69.9985,39.66,273.6146,86.4681,9.6132e-05,1.009e-05,0.0,0 STARLINK-3057,1 49139U 21082K   22186.83776834  .00001009  00000-0  96132-4 0  9999,2 49139  69.9985  39.6600 0002900 273.6146  86.4681 14.96716525 45837,6955.187,96.211,579.069,575.035,0.0
49139.0,STARLINK-3057,PAYLOAD,2022-07-06 13:44:59,14.96723595,0.0002837,69.9985,37.8111,270.6625,89.4208,9.1479e-05,9.56e-06,0.0,0 STARLINK-3057,1 49139U 21082K   22187.57291368  .00000956  00000-0  91479-4 0  9994,2 49139  69.9985  37.8111 0002837 270.6625  89.4208 14.96723595 45947,6955.165,96.21,579.003,575.057,0.0
49139.0,STARLINK-3057,PAYLOAD,2022-07-06 20:09:56,14.96725724,0.0002829,69.9986,37.1386,270.8827,89.2007,0.00011165,1.187e-05,0.0,0 STARLINK-3057,1 49139U 21082K   22187.84023827  .00001187  00000-0  11165-3 0  9997,2 49139  69.9986  37.1386 0002829 270.8827  89.2007 14.96725724 45987,6955.158,96.21,578.991,575.056,0.0
